AKEBONO (EXOS-D)        
1 19822U 89016A   15355.18227648  .00028191  86867-6  61191-3 0  9996
2 19822  75.0423 183.2381 2030326 255.8872  80.9479 11.42245457846352
HST                     
1 20580U 90037B   15354.75769676  .00001869  00000-0  10717-3 0  9998
2 20580  28.4712   3.3393 0003076  83.3219 254.6019 15.07995864207992
POLAR                   
1 23802U 96013A   15353.67975325 -.00000330  00000-0  00000+0 0  9991
2 23802  78.4182 284.1935 7468611 346.3066   1.1513  1.29841720 95087
SWAS                    
1 25560U 98071A   15355.08045058  .00000975  00000-0  10280-3 0  9997
2 25560  69.8974 188.3719 0011321 281.8283  78.1602 14.92785391924323
ORSTED                  
1 25635U 99008B   15354.63280311  .00000297  00000-0  78672-4 0  9991
2 25635  96.4491  16.7328 0139236 183.5368 176.4859 14.47807608887436
CXO                     
1 25867U 99040B   15358.26282584  .00000250  00000-0  00000+0 0  9995
2 25867  76.4493 302.2216 7281074 265.0484   0.4511  0.37796210 14008
XMM-NEWTON              
1 25989U 99066A   15354.19499326 -.00000449  00000-0  00000-0 0  9992
2 25989  66.9746  32.2814 8149031  94.4366 359.7271  0.50158039  3795
TERRA                   
1 25994U 99068A   15355.06768915 -.00004953  00000-0 -10908-2 0  9995
2 25994  98.2073  66.9329 0001058  68.9893 291.1571 14.57079426851434
CLUSTER II-FM6 (SALSA)  
1 26410U 00041A   15353.29978181  .00000567  00000-0  00000+0 0  9997
2 26410 131.8154 327.1551 5384747 139.3284 359.7271  0.44213398 15082
CLUSTER II-FM7 (SAMBA)  
1 26411U 00041B   15357.87665989  .00000094  00000-0  00000+0 0  9990
2 26411 130.8802 329.0120 5862029 145.6669 359.6714  0.44232916 15185
CLUSTER II-FM5 (RUMBA)  
1 26463U 00045A   15357.76869808  .00000159  00000-0  00000+0 0  9997
2 26463 134.3249 326.5732 5540675 143.1186 359.7034  0.44275022 15680
CLUSTER II-FM8 (TANGO)  
1 26464U 00045B   15355.56172321  .00000395  00000-0  00000+0 0  9993
2 26464 131.7934 327.2068 5377026 139.3678 359.8107  0.44227980 51013
ODIN                    
1 26702U 01007A   15355.12455331  .00005054  00000-0  35095-3 0  9997
2 26702  97.6341   6.7028 0012843 106.1945 254.0696 15.05939717809721
TIMED                   
1 26998U 01055B   15355.21758401  .00000779  00000-0  89801-4 0  9995
2 26998  74.0721 317.3263 0001170 234.7315 125.3756 14.87562099760582
RHESSI                  
1 27370U 02004A   15354.51553207  .00008193  00000-0  33307-3 0  9991
2 27370  38.0360 119.8677 0012876 307.0972  52.8619 15.24196008762992
INTEGRAL                
1 27540U 02048A   15354.74975820  .00000794  00000-0  00000+0 0  9991
2 27540  52.4685 213.2576 8054431 258.8730   0.1135  0.37720715 12256
CORIOLIS                
1 27640U 03001A   15355.12843355  .00000088  00000-0  63138-4 0  9994
2 27640  98.7504   1.5445 0015071  71.7656 329.7626 14.18877011670791
SORCE                   
1 27651U 03004A   15354.48553535  .00000940  00000-0  11451-3 0  9992
2 27651  39.9953 116.1191 0023530   7.1620 352.9501 14.88094811699609
MOST                    
1 27843U 03031D   15354.01232209  .00000038  00000-0  38230-4 0  9999
2 27843  98.7156 358.8983 0010588 140.7433 219.4513 14.20504273646559
SCISAT 1                
1 27858U 03036A   15354.89240918  .00000292  00000-0  46433-4 0  9998
2 27858  73.9316 182.0403 0007041  42.6059 317.5660 14.76943938665411
SWIFT                   
1 28485U 04047A   15354.30718158  .00003156  00000-0  19824-3 0  9995
2 28485  20.5586 341.3213 0011658 198.4111 161.5901 15.02583713606109
FORMOSAT-3 FM6          
1 29047U 06011A   15355.08817695  .00000237  00000-0  10964-3 0  9998
2 29047  71.9787 217.2766 0050306   8.1658 352.0285 14.28440202507066
FORMOSAT-3 FM1          
1 29048U 06011B   15354.86493939  .00000206  00000-0  97923-4 0  9992
2 29048  71.9675 130.4707 0045576 323.3616 193.5429 14.28395076509522
FORMOSAT-3 FM5          
1 29049U 06011C   15355.18286105  .00000275  00000-0  12561-3 0  9994
2 29049  72.0211 292.1972 0034758   2.4668 357.6633 14.28412805505349
FORMOSAT-3 FM3          
1 29050U 06011D   15354.86071820  .00000758  00000-0  17225-3 0  9994
2 29050  72.0165 245.6536 0048454  64.5313 296.0840 14.58127500517215
FORMOSAT-3 FM4          
1 29051U 06011E   15353.95104195  .00000184  00000-0  87722-4 0  9999
2 29051  72.0047 199.7272 0070226 243.5324 115.8597 14.28422068507753
FORMOSAT-3 FM2          
1 29052U 06011F   15355.18066440  .00000325  00000-0  14457-3 0  9998
2 29052  72.0353 266.5846 0041346 327.4419  32.4168 14.28526197506241
CLOUDSAT                
1 29107U 06016A   15355.15768256  .00000316  00000-0  80093-4 0  9995
2 29107  98.2155 295.9225 0000648  61.4280 298.6984 14.57111785513201
CALIPSO                 
1 29108U 06016B   15355.15655228  .00000651  00000-0  15448-3 0  9993
2 29108  98.2161 295.5030 0001247  78.4642 281.6697 14.57124158513138
HINODE (SOLAR-B)        
1 29479U 06041A   15354.10774046  .00000336  00000-0  72302-4 0  9999
2 29479  98.1531 352.0246 0018168 129.7882 230.4924 14.64593468493609
SJ-6C                   
1 29505U 06046A   15355.17770883  .00000276  00000-0  31266-4 0  9994
2 29505  97.7986 348.9978 0004336  96.0485 264.1238 14.94007707498630
SJ-6D                   
1 29506U 06046B   15355.23367883  .00000292  00000-0  33602-4 0  9998
2 29506  97.8163 348.0201 0002765 134.6334 225.5105 14.92987742498385
AGILE                   
1 31135U 07013A   15355.02714430  .00007983  00000-0  25192-3 0  9993
2 31135   2.4687  18.5135 0014173 188.2478 171.7343 15.26826734480304
AIM                     
1 31304U 07015A   15354.82866872  .00006488  00000-0  40558-3 0  9990
2 31304  97.9439 139.5133 0005486 177.1530 182.9730 15.09797637472711
FGRST (GLAST)           
1 33053U 08029A   15353.72591422  .00001373  00000-0  64112-4 0  9994
2 33053  25.5822 114.5014 0012989  94.9378 265.2640 15.10320310414746
IBEX                    
1 33401U 08051A   15358.85450670 -.00001673  00000-0  00000+0 0  9999
2 33401  25.4467  44.8726 4786984 136.1818 347.7882  0.10297052  3048
WISE                    
1 36119U 09071A   15354.50913965  .00004222  00000-0  16609-3 0  9998
2 36119  97.4939  10.2054 0004492  82.3821 277.7927 15.26197456333138
SDO                     
1 36395U 10005A   15354.45954672 -.00000030  00000-0  00000+0 0  9995
2 36395  28.2555 150.3059 0002245 157.8924 204.3768  1.00270783 21615
CRYOSAT 2               
1 36508U 10013A   15355.20483602  .00000180  00000-0  43643-4 0  9994
2 36508  92.0336  70.8205 0009407  45.2209 314.9762 14.52172729302211
PICARD                  
1 36598U 10028A   15355.22202755  .00000000  00000-0  11239-4 0  9996
2 36598  98.3064 176.8813 0001726 161.4261 198.6982 14.50394370291904
SPEKTR-R                
1 37755U 11037A   15358.02107984 -.00005218  00000-0  00000+0 0  9998
2 37755  54.8977  95.1540 8007780 227.4448 353.0023  0.11084089  1901
GCOM-W1 (SHIZUKU)       
1 38337U 12025A   15354.48961001  .00000348  00000-0  87196-4 0  9991
2 38337  98.2154 291.5387 0001207  80.4575  43.6907 14.57110359191049
NUSTAR                  
1 38358U 12031A   15354.22279685  .00002132  00000-0  15542-3 0  9991
2 38358   6.0266 302.8116 0011917   7.2092 352.8208 14.87051864191169
RBSP A                  
1 38752U 12046A   15353.56760299 -.00000175  00000-0 -31772-4 0  9998
2 38752  10.0241  83.1154 6825617   5.5639 359.2097  2.68098935 32235
RBSP B                  
1 38753U 12046B   15354.29801836 -.00000169  00000-0  33130-5 0  9996
2 38753   9.9905  88.1426 6842079 355.9184   0.5450  2.65107793 32111
NEOSSAT                 
1 39089U 13009D   15354.50117356  .00000126  00000-0  60406-4 0  9997
2 39089  98.5901 191.2728 0012067 109.5532 250.6957 14.34302390147313
BRITE-AUSTRIA           
1 39091U 13009F   15355.09713747  .00000122  00000-0  58402-4 0  9990
2 39091  98.5891 192.8500 0011480 118.0428 242.1920 14.34940099147462
UNIBRITE                
1 39092U 13009G   15355.11825681  .00000148  00000-0  67751-4 0  9990
2 39092  98.5893 192.6403 0010419 111.4388 248.7909 14.34812182147457
IRIS                    
1 39197U 13033A   15354.60861842  .00000799  00000-0  11709-3 0  9998
2 39197  97.9088 174.1759 0028893 135.0397 225.3161 14.78040406133656
HISAKI (SPRINT-A)       
1 39253U 13049A   15355.13870372  .00000065  00000-0 -11908-5 0  9995
2 39253  29.7201 248.6984 0137218 291.1141  67.4812 13.55148338112381
CASSIOPE                
1 39265U 13055A   15355.15033188  .00016190  00000-0  49263-3 0  9991
2 39265  80.9725 215.6353 0714449  21.3455 341.5975 14.16537023114284
DANDE                   
1 39267U 13055C   15354.80472554  .00011501  00000-0  35254-3 0  9994
2 39267  81.0147 220.1924 0734250  30.1577 333.9813 14.12172559114041
STSAT-3                 
1 39422U 13066G   15355.18679614  .00000741  00000-0  84314-4 0  9993
2 39422  97.7235  61.8961 0022157 232.2701 127.6549 14.88973406112963
BRITE-PL                
1 39431U 13066R   15355.16326125  .00000510  00000-0  11956-3 0  9992
2 39431  97.6840  11.5483 0203187   0.8186 359.3302 14.46622934109794
SWARM B                 
1 39451U 13067A   15354.22190275  .00001436  00000-0  64813-4 0  9995
2 39451  87.7528  50.7983 0002169  67.4165 292.7309 15.20171287115036
SWARM A                 
1 39452U 13067B   15354.51570904  .00004554  00000-0  11449-3 0  9999
2 39452  87.3486   8.5965 0002230  77.0550 283.0954 15.39658645116253
SWARM C                 
1 39453U 13067C   15354.51563302  .00004746  00000-0  11937-3 0  9999
2 39453  87.3487  10.0041 0002240  77.8552 282.2954 15.39657656116217
BRITE-TORONTO           
1 40020U 14033L   15355.16148233  .00000562  00000-0  10569-3 0  9991
2 40020  97.9112 236.8702 0086579 255.6009 103.5574 14.66154646 80362
OCO 2                   
1 40059U 14035A   15353.91456274  .00000263  00000-0  68365-4 0  9999
2 40059  98.2156 292.1434 0001154  99.8960 260.2368 14.57110341 77972
BRITE-PL 2              
1 40119U 14049B   15355.20877085  .00000938  00000-0  11964-3 0  9993
2 40119  97.9758  71.9383 0018909  65.2130 295.1048 14.83738630 72480
RESURS P2               
1 40360U 14087A   15355.21583551  .00001868  00000-0  62109-4 0  9997
2 40360  97.2868  86.9363 0011013 138.4334 305.3191 15.32378497 55092
MMS 1                   
1 40482U 15011A   15349.72574074 -.00000442  00000-0  00000+0 0  9994
2 40482  28.7934   1.1055 8159640  69.6274   2.2316  1.00477224  2791
MMS 2                   
1 40483U 15011B   15349.72686343 -.00000442  00000-0  00000+0 0  9998
2 40483  28.7934   1.0987 8162132  69.6377   2.6384  1.00477242  2798
MMS 3                   
1 40484U 15011C   15349.72789352 -.00000442  00000-0  00000+0 0  9993
2 40484  28.7901   1.1065 8160769  69.6134   3.0545  1.00477266  2796
MMS 4                   
1 40485U 15011D   15349.72895833 -.00000442  00000-0  00000+0 0  9996
2 40485  28.8003   1.0950 8160874  69.6268   3.4284  1.00477255  2790
ASTROSAT                
1 40930U 15052A   15355.01297787  .00001179  00000-0  76355-4 0  9997
2 40930   5.9933 152.5362 0012207  96.9760 263.1882 14.76209122 12412
